IRIDIUM 155             
1 43573U 18061E   24036.56289617  .00000117  00000+0  34701-4 0  9994
2 43573  86.3924  57.1875 0001998  86.7017 273.4407 14.34216973289720
IRIDIUM 154             
1 43574U 18061F   24036.96248252 -.00000180  00000+0 -71317-4 0  9995
2 43574  86.3925  57.1119 0002310  89.7057 270.4403 14.34216129289826
IRIDIUM 163             
1 43575U 18061G   24036.59461453 -.00000116  00000+0 -48371-4 0  9998
2 43575  86.3924  57.2079 0002193  89.5763 270.5684 14.34214834289747
IRIDIUM 156             
1 43576U 18061H   24036.77852986  .00000267  00000+0  88251-4 0  9990
2 43576  86.3926  57.1370 0002063  97.2444 262.8987 14.34222354289769
IRIDIUM 164             
1 43577U 18061J   24036.55021031  .00000220  00000+0  71600-4 0  9995
2 43577  86.3927  57.2596 0002291  96.9235 263.2221 14.34217446289772
IRIDIUM 159             
1 43578U 18061K   24036.58826286 -.00000007  00000+0 -95185-5 0  9994
2 43578  86.3923  57.1985 0002198  89.2804 270.8643 14.34215439289742
IRIDIUM 180             
1 43922U 19002A   24036.93660420  .00000439  00000+0  14973-3 0  9999
2 43922  86.4005 353.9427 0002287  87.2966 272.8492 14.34218941265403
IRIDIUM 176             
1 43923U 19002B   24036.92067362  .00001597  00000+0  24928-3 0  9992
2 43923  86.6134 353.9783 0002325  90.2028 269.9455 14.72272861272384
IRIDIUM 168             
1 43924U 19002C   24036.93026560  .00000048  00000+0  99814-5 0  9997
2 43924  86.4010 353.9985 0002242  87.8797 272.2656 14.34217923265381
IRIDIUM 173             
1 43925U 19002D   24036.91757605  .00000452  00000+0  15438-3 0  9994
2 43925  86.4004 353.9278 0002210  83.1706 276.9741 14.34217344265365
IRIDIUM 169             
1 43926U 19002E   24036.89982333  .00000478  00000+0  14992-3 0  9992
2 43926  86.4224  25.5317 0001586   2.7149 357.4057 14.38605706266250
IRIDIUM 172             
1 43927U 19002F   24036.91123170  .00000360  00000+0  12162-3 0  9999
2 43927  86.4005 353.9357 0002270  86.4568 273.6887 14.34221364265377
IRIDIUM 175             
1 43928U 19002G   24036.84677990  .00001681  00000+0  26247-3 0  9992
2 43928  86.1547 334.6447 0002324  84.5953 275.5529 14.72269406272361
IRIDIUM 171             
1 43929U 19002H   24036.96197744  .00000234  00000+0  76461-4 0  9997
2 43929  86.4015 354.1252 0002175  89.4918 270.6527 14.34217713265374
IRIDIUM 170             
1 43930U 19002J   24036.92688543  .00001607  00000+0  25081-3 0  9993
2 43930  86.6134 353.9806 0002465  87.5816 272.5683 14.72275921272391
IRIDIUM 167             
1 43931U 19002K   24036.95563184  .00000474  00000+0  16215-3 0  9990
2 43931  86.4004 353.9320 0002220  88.9283 271.2167 14.34217467265371
IRIDIUM 181             
1 56726U 23068S   24036.92047790  .00000308  00000+0  85106-4 0  9992
2 56726  86.8606  41.2377 0002158 106.1868 253.9571 14.43573935 38054
IRIDIUM 177             
1 56727U 23068T   24036.92884842  .00002235  00000+0  29055-3 0  9991
2 56727  86.1981  18.1339 0002540  91.6333 268.5179 14.80242518 38816
IRIDIUM 174             
1 56728U 23068U   24036.92342581  .00002242  00000+0  29134-3 0  9997
2 56728  86.1988  18.2295 0002545  90.3818 269.7695 14.80262571 38812
IRIDIUM 178             
1 56729U 23068V   24036.91823793  .00000929  00000+0  11887-3 0  9992
2 56729  86.5774  29.4212 0002674  93.6710 266.4817 14.80221998 38811
IRIDIUM 179             
1 56730U 23068W   24036.91286085  .00000910  00000+0  11635-3 0  9992
2 56730  86.6779  31.8903 0002369  95.0294 265.1198 14.80214896 38814
